{"fetched_at":"2026-07-18T06:27:42.515Z","source":"https://celestrak.org/NORAD/elements/gp.php?GROUP=iridium-NEXT&FORMAT=JSON","constellation":"iridium","records":[{"OBJECT_NAME":"IRIDIUM 116","OBJECT_ID":"2017-083C","EPOCH":"2026-07-17T20:14:26.709216","CLASSIFICATION_TYPE":"U","MEAN_MOTION":14.34217719,"ECCENTRICITY":0.00019991,"INCLINATION":86.3993,"RA_OF_ASC_NODE":309.1859,"ARG_OF_PERICENTER":127.5831,"MEAN_ANOMALY":232.5546,"EPHEMERIS_TYPE":0,"NORAD_CAT_ID":43072,"ELEMENT_SET_NO":999,"REV_AT_EPOCH":44856,"BSTAR":0.000038226704,"MEAN_MOTION_DOT":0.00000127,"MEAN_MOTION_DDOT":0},{"OBJECT_NAME":"IRIDIUM 130","OBJECT_ID":"2017-083D","EPOCH":"2026-07-17T19:28:47.334144","CLASSIFICATION_TYPE":"U","MEAN_MOTION":14.34218539,"ECCENTRICITY":0.00023187,"INCLINATION":86.3995,"RA_OF_ASC_NODE":309.4782,"ARG_OF_PERICENTER":100.613,"MEAN_ANOMALY":259.5327,"EPHEMERIS_TYPE":0,"NORAD_CAT_ID":43073,"ELEMENT_SET_NO":999,"REV_AT_EPOCH":44850,"BSTAR":0.000042280892,"MEAN_MOTION_DOT":0.00000138,"MEAN_MOTION_DDOT":0},{"OBJECT_NAME":"IRIDIUM 151","OBJECT_ID":"2017-083E","EPOCH":"2026-07-17T17:11:47.179392","CLASSIFICATION_TYPE":"U","MEAN_MOTION":14.34218291,"ECCENTRICITY":0.00022713,"INCLINATION":86.3988,"RA_OF_ASC_NODE":309.2981,"ARG_OF_PERICENTER":95.1269,"MEAN_ANOMALY":265.0186,"EPHEMERIS_TYPE":0,"NORAD_CAT_ID":43074,"ELEMENT_SET_NO":999,"REV_AT_EPOCH":44851,"BSTAR":0.000029147882,"MEAN_MOTION_DOT":0.00000101,"MEAN_MOTION_DDOT":0},{"OBJECT_NAME":"IRIDIUM 134","OBJECT_ID":"2017-083F","EPOCH":"2026-07-17T19:47:03.206688","CLASSIFICATION_TYPE":"U","MEAN_MOTION":14.34217808,"ECCENTRICITY":0.00022485,"INCLINATION":86.399,"RA_OF_ASC_NODE":309.2614,"ARG_OF_PERICENTER":95.7811,"MEAN_ANOMALY":264.3641,"EPHEMERIS_TYPE":0,"NORAD_CAT_ID":43075,"ELEMENT_SET_NO":999,"REV_AT_EPOCH":44849,"BSTAR":0.000007507979,"MEAN_MOTION_DOT":4.1e-7,"MEAN_MOTION_DDOT":0},{"OBJECT_NAME":"IRIDIUM 137","OBJECT_ID":"2017-083G","EPOCH":"2026-07-17T20:05:19.276224","CLASSIFICATION_TYPE":"U","MEAN_MOTION":14.34217852,"ECCENTRICITY":0.00026729,"INCLINATION":86.3991,"RA_OF_ASC_NODE":309.3496,"ARG_OF_PERICENTER":93.0247,"MEAN_ANOMALY":267.1255,"EPHEMERIS_TYPE":0,"NORAD_CAT_ID":43076,"ELEMENT_SET_NO":999,"REV_AT_EPOCH":44856,"BSTAR":0.000005132373,"MEAN_MOTION_DOT":3.4e-7,"MEAN_MOTION_DDOT":0},{"OBJECT_NAME":"IRIDIUM 141","OBJECT_ID":"2017-083H","EPOCH":"2026-07-17T19:56:11.151168","CLASSIFICATION_TYPE":"U","MEAN_MOTION":14.34217834,"ECCENTRICITY":0.00021693,"INCLINATION":86.3985,"RA_OF_ASC_NODE":309.1812,"ARG_OF_PERICENTER":93.9051,"MEAN_ANOMALY":266.2393,"EPHEMERIS_TYPE":0,"NORAD_CAT_ID":43077,"ELEMENT_SET_NO":999,"REV_AT_EPOCH":44856,"BSTAR":0.000016300003,"MEAN_MOTION_DOT":6.5e-7,"MEAN_MOTION_DDOT":0},{"OBJECT_NAME":"IRIDIUM 153","OBJECT_ID":"2017-083J","EPOCH":"2026-07-17T15:26:23.394048","CLASSIFICATION_TYPE":"U","MEAN_MOTION":14.34217857,"ECCENTRICITY":0.00021355,"INCLINATION":86.3959,"RA_OF_ASC_NODE":277.7384,"ARG_OF_PERICENTER":95.3228,"MEAN_ANOMALY":264.8212,"EPHEMERIS_TYPE":0,"NORAD_CAT_ID":43078,"ELEMENT_SET_NO":999,"REV_AT_EPOCH":44964,"BSTAR":0.000011107915,"MEAN_MOTION_DOT":5.1e-7,"MEAN_MOTION_DDOT":0},{"OBJECT_NAME":"IRIDIUM 131","OBJECT_ID":"2017-083K","EPOCH":"2026-07-17T19:37:55.176672","CLASSIFICATION_TYPE":"U","MEAN_MOTION":14.3421796,"ECCENTRICITY":0.00022233,"INCLINATION":86.3989,"RA_OF_ASC_NODE":309.3745,"ARG_OF_PERICENTER":93.9299,"MEAN_ANOMALY":266.2151,"EPHEMERIS_TYPE":0,"NORAD_CAT_ID":43079,"ELEMENT_SET_NO":999,"REV_AT_EPOCH":44849,"BSTAR":0.000009991333,"MEAN_MOTION_DOT":4.8e-7,"MEAN_MOTION_DDOT":0},{"OBJECT_NAME":"IRIDIUM 144","OBJECT_ID":"2018-030A","EPOCH":"2026-07-17T22:17:23.313120","CLASSIFICATION_TYPE":"U","MEAN_MOTION":14.34218476,"ECCENTRICITY":0.00024068,"INCLINATION":86.3955,"RA_OF_ASC_NODE":277.5474,"ARG_OF_PERICENTER":96.2387,"MEAN_ANOMALY":263.9083,"EPHEMERIS_TYPE":0,"NORAD_CAT_ID":43249,"ELEMENT_SET_NO":999,"REV_AT_EPOCH":43454,"BSTAR":0.000024994429,"MEAN_MOTION_DOT":9e-7,"MEAN_MOTION_DDOT":0},{"OBJECT_NAME":"IRIDIUM 149","OBJECT_ID":"2018-030B","EPOCH":"2026-07-17T22:26:31.403616","CLASSIFICATION_TYPE":"U","MEAN_MOTION":14.3421806,"ECCENTRICITY":0.00022622,"INCLINATION":86.3954,"RA_OF_ASC_NODE":277.5113,"ARG_OF_PERICENTER":93.7411,"MEAN_ANOMALY":266.4043,"EPHEMERIS_TYPE":0,"NORAD_CAT_ID":43250,"ELEMENT_SET_NO":999,"REV_AT_EPOCH":43456,"BSTAR":0.000016813383,"MEAN_MOTION_DOT":6.7e-7,"MEAN_MOTION_DDOT":0},{"OBJECT_NAME":"IRIDIUM 157","OBJECT_ID":"2018-030C","EPOCH":"2026-07-17T22:53:55.526496","CLASSIFICATION_TYPE":"U","MEAN_MOTION":14.34218655,"ECCENTRICITY":0.00022778,"INCLINATION":86.3957,"RA_OF_ASC_NODE":277.5575,"ARG_OF_PERICENTER":94.3814,"MEAN_ANOMALY":265.7642,"EPHEMERIS_TYPE":0,"NORAD_CAT_ID":43251,"ELEMENT_SET_NO":999,"REV_AT_EPOCH":43454,"BSTAR":0.000040957437,"MEAN_MOTION_DOT":0.00000134,"MEAN_MOTION_DDOT":0},{"OBJECT_NAME":"IRIDIUM 140","OBJECT_ID":"2018-030D","EPOCH":"2026-07-17T14:58:59.619360","CLASSIFICATION_TYPE":"U","MEAN_MOTION":14.3421817,"ECCENTRICITY":0.00022524,"INCLINATION":86.3957,"RA_OF_ASC_NODE":277.7078,"ARG_OF_PERICENTER":95.6876,"MEAN_ANOMALY":264.4577,"EPHEMERIS_TYPE":0,"NORAD_CAT_ID":43252,"ELEMENT_SET_NO":999,"REV_AT_EPOCH":43455,"BSTAR":0.000040918243,"MEAN_MOTION_DOT":0.00000134,"MEAN_MOTION_DDOT":0},{"OBJECT_NAME":"IRIDIUM 145","OBJECT_ID":"2018-030E","EPOCH":"2026-07-17T16:21:11.445408","CLASSIFICATION_TYPE":"U","MEAN_MOTION":14.34217565,"ECCENTRICITY":0.00025432,"INCLINATION":86.3956,"RA_OF_ASC_NODE":277.6562,"ARG_OF_PERICENTER":98.4503,"MEAN_ANOMALY":261.6981,"EPHEMERIS_TYPE":0,"NORAD_CAT_ID":43253,"ELEMENT_SET_NO":999,"REV_AT_EPOCH":43449,"BSTAR":0.000023216222,"MEAN_MOTION_DOT":8.5e-7,"MEAN_MOTION_DDOT":0},{"OBJECT_NAME":"IRIDIUM 146","OBJECT_ID":"2018-030F","EPOCH":"2026-07-17T22:35:39.461280","CLASSIFICATION_TYPE":"U","MEAN_MOTION":14.34217617,"ECCENTRICITY":0.00023852,"INCLINATION":86.3955,"RA_OF_ASC_NODE":277.5596,"ARG_OF_PERICENTER":96.2997,"MEAN_ANOMALY":263.847,"EPHEMERIS_TYPE":0,"NORAD_CAT_ID":43254,"ELEMENT_SET_NO":999,"REV_AT_EPOCH":43454,"BSTAR":0.000013365946,"MEAN_MOTION_DOT":5.7e-7,"MEAN_MOTION_DDOT":0},{"OBJECT_NAME":"IRIDIUM 148","OBJECT_ID":"2018-030G","EPOCH":"2026-07-17T18:29:03.591744","CLASSIFICATION_TYPE":"U","MEAN_MOTION":14.34218614,"ECCENTRICITY":0.00023397,"INCLINATION":86.3958,"RA_OF_ASC_NODE":277.6745,"ARG_OF_PERICENTER":93.2014,"MEAN_ANOMALY":266.945,"EPHEMERIS_TYPE":0,"NORAD_CAT_ID":43255,"ELEMENT_SET_NO":999,"REV_AT_EPOCH":43455,"BSTAR":0.000041022757,"MEAN_MOTION_DOT":0.00000135,"MEAN_MOTION_DDOT":0},{"OBJECT_NAME":"IRIDIUM 142","OBJECT_ID":"2018-030H","EPOCH":"2026-07-17T16:02:55.469184","CLASSIFICATION_TYPE":"U","MEAN_MOTION":14.34217866,"ECCENTRICITY":0.00024346,"INCLINATION":86.3954,"RA_OF_ASC_NODE":277.6049,"ARG_OF_PERICENTER":95.4152,"MEAN_ANOMALY":264.7322,"EPHEMERIS_TYPE":0,"NORAD_CAT_ID":43256,"ELEMENT_SET_NO":999,"REV_AT_EPOCH":43450,"BSTAR":0.000009488763,"MEAN_MOTION_DOT":4.6e-7,"MEAN_MOTION_DDOT":0}]}
